ONEWEB-0270             
1 48988C 21060X   23004.02375414 -.00000137  00000-0 -35817-3 0    48
2 48988  87.9073 119.7321 0001576  97.8238   8.2411 13.16596312    17
ONEWEB-0271             
1 48989C 21060Y   23004.38104581 -.00002498  00000-0 -65425-2 0    42
2 48989  87.9079 119.6377 0002163  95.6286 322.7948 13.16603531    17
ONEWEB-0272             
1 48990C 21060Z   23004.26196017  .00002472  00000-0  64749-2 0    44
2 48990  87.9060 119.6644 0002071 103.2634   1.0657 13.16591654    13
ONEWEB-0273             
1 48991C 21060AA  23004.04011988 -.00001471  00000-0 -38521-2 0    43
2 48991  87.9069 119.7229 0001795  99.6490 293.8879 13.16594481    11
ONEWEB-0274             
1 48992C 21060AB  23004.46440230 -.00003875  00000-0 -10148-1 0    40
2 48992  87.9081 119.6359 0001977  98.5769  24.8267 13.16602045    17
ONEWEB-0275             
1 48993C 21060AC  23004.36439072 -.00003068  00000-0 -80358-2 0    47
2 48993  87.9078 119.6572 0001582 102.0615 317.4813 13.16596040    19
ONEWEB-0276             
1 48994C 21060AD  23004.10293240  .00002331  00000-0  61057-2 0    40
2 48994  87.9051 119.7251 0001941  95.1046   6.0191 13.16592498    18
ONEWEB-0277             
1 48995C 21060AE  23004.04180970 -.00000462  00000-0 -12106-2 0    45
2 48995  87.9047 119.7393 0002231  97.1634  14.3094 13.16590582    15
ONEWEB-0278             
1 48996C 21060AF  23004.03039766 -.00000099  00000-0 -26053-3 0    44
2 48996  87.9069 119.7128 0001761 100.2710   7.1564 13.16590925    17
ONEWEB-0279             
1 48997C 21060AG  23004.25154350  .00002561  00000-0  67078-2 0    41
2 48997  87.9065 119.6732 0001708 106.4358 288.6047 13.16593364    13
ONEWEB-0280             
1 48998C 21060AH  23004.20434443  .00002107  00000-0  55186-2 0    44
2 48998  87.9061 119.6941 0002517  95.3943   6.1243 13.16588356    13
ONEWEB-0281             
1 48999C 21060AJ  23004.02449488 -.00002223  00000-0 -58213-2 0    45
2 48999  87.9071 119.7157 0001783 118.0615 181.4178 13.16594639    13
ONEWEB-0282             
1 49000C 21060AK  23004.08800183  .00001481  00000-0  38784-2 0    42
2 49000  87.9059 119.7137 0001879  94.8832   5.4820 13.16596117    11
ONEWEB-0283             
1 49001C 21060AL  23004.23005045  .00002184  00000-0  57201-2 0    40
2 49001  87.9055 119.6722 0002002  99.4137   3.8262 13.16597022    13
ONEWEB-0284             
1 49002C 21060AM  23004.36024721 -.00002878  00000-0 -75384-2 0    41
2 49002  87.9071 119.6951 0001747  93.2919 296.6832 13.16600077    11
ONEWEB-0285             
1 49075C 21075A   23004.03105740  .00003476  00000-0  96731-2 0    44
2 49075  87.8940 240.9992 0001708  79.2232 354.0992 13.12439343    15
ONEWEB-0286             
1 49076C 21075B   23004.15396248 -.00000045  00000-0 -12492-3 0    47
2 49076  87.8932 240.9736 0001260 103.6303 340.0131 13.12441253    10
ONEWEB-0287             
1 49077C 21075C   23004.26511988 -.00001264  00000-0 -32603-2 0    49
2 49077  87.9109 256.2009 0001503  63.3926  43.0261 13.17648664    18
ONEWEB-0288             
1 49078C 21075D   23004.14009674  .00001504  00000-0  41848-2 0    47
2 49078  87.8931 240.9756 0001289  83.9813   4.1615 13.12439387    10
ONEWEB-0289             
1 49079C 21075E   23004.13489998  .00001555  00000-0  40098-2 0    40
2 49079  87.9113 256.1975 0001597  82.3320  38.6147 13.17645496    11
ONEWEB-0290             
1 49080C 21075F   23004.12241155  .00002413  00000-0  62228-2 0    45
2 49080  87.9108 256.2230 0001614  65.4533  55.0533 13.17644032    17
ONEWEB-0291             
1 49081C 21075G   23004.41267776 -.00000163  00000-0 -42058-3 0    47
2 49081  87.9109 256.1532 0001415  70.4894  37.5937 13.17651058    17
ONEWEB-0293             
1 49082C 21075H   23004.27727267 -.00002422  00000-0 -62459-2 0    44
2 49082  87.9109 256.1655 0001547  65.4669  39.7955 13.17650237    16
ONEWEB-0294             
1 49083C 21075J   23004.07654350  .00002639  00000-0  73449-2 0    44
2 49083  87.8929 240.9915 0001703  66.1453  56.8511 13.12436868    14
ONEWEB-0295             
1 49084C 21075K   23004.27863840 -.00002532  00000-0 -65295-2 0    47
2 49084  87.9109 256.1237 0001074  58.8671  45.5255 13.17651813    17
ONEWEB-0296             
1 49085C 21075L   23004.12864999  .00002555  00000-0  71109-2 0    42
2 49085  87.8934 240.9771 0000635  44.4262  39.5812 13.12441663    13
ONEWEB-0297             
1 49086C 21075M   23004.16025877 -.00000454  00000-0 -12646-2 0    40
2 49086  87.8928 240.9701 0001663  98.6073 354.7250 13.12440701    13
ONEWEB-0298             
1 49087C 21075N   23004.28039766 -.00002631  00000-0 -67857-2 0    49
2 49087  87.9108 256.1475 0001274  87.6284  17.7580 13.17652612    15
ONEWEB-0299             
1 49088C 21075P   23004.13316388  .00001618  00000-0  41722-2 0    47
2 49088  87.9164 256.1762 0001325  80.7353  39.2986 13.17646956    18
ONEWEB-0300             
1 49089C 21075Q   23004.15053655  .00000309  00000-0  85974-3 0    49
2 49089  87.8933 240.9695 0001524  93.1116 354.3872 13.12438232    10
ONEWEB-0301             
1 49090C 21075R   23004.13697174  .00001922  00000-0  53496-2 0    44
2 49090  87.8929 240.9799 0001852  88.9287   4.4537 13.12436488    19
ONEWEB-0302             
1 49091C 21075S   23004.21024720 -.00000242  00000-0 -67259-3 0    44
2 49091  87.8939 240.9679 0001302  75.0640  59.3070 13.12446184    13
ONEWEB-0304             
1 49092C 21075T   23004.26647405 -.00001421  00000-0 -36644-2 0    44
2 49092  87.9107 256.1581 0001556  78.5750  26.9135 13.17649545    17
ONEWEB-0305             
1 49093C 21075U   23004.41160137 -.00000108  00000-0 -27925-3 0    48
2 49093  87.9109 256.1715 0001136  79.9348  30.3146 13.17648436    10
ONEWEB-0308             
1 49094C 21075V   23004.26788609 -.00001147  00000-0 -31914-2 0    48
2 49094  87.8941 240.9512 0001548  84.7676 346.8910 13.12441673    18
ONEWEB-0309             
1 49095C 21075W   23004.41648563 -.00000265  00000-0 -68388-3 0    46
2 49095  87.9104 256.1756 0001762  59.9645  51.3737 13.17647088    16
ONEWEB-0310             
1 49096C 21075X   23004.06230738  .00003897  00000-0  10846-1 0    45
2 49096  87.8899 241.0047 0001589  70.9244  54.7814 13.12436888    10
ONEWEB-0311             
1 49097C 21075Y   23004.11958748  .00002713  00000-0  69968-2 0    46
2 49097  87.9104 256.2354 0001247  88.5072  33.2475 13.17645481    16
ONEWEB-0312             
1 49098C 21075Z   23004.20014303 -.00000148  00000-0 -38070-3 0    40
2 49098  87.9109 256.1856 0001359  68.7305  38.2035 13.17647808    13
ONEWEB-0313             
1 49099C 21075AA  23004.11404351  .00003303  00000-0  85185-2 0    49
2 49099  87.9101 256.2307 0001277  64.8955  59.9988 13.17642125    19
ONEWEB-0314             
1 49100C 21075AB  23004.40986526 -.00000075  00000-0 -19469-3 0    41
2 49100  87.9107 256.1768 0001253  66.1335  43.3295 13.17649271    16
ONEWEB-0315             
1 49101C 21075AC  23004.40709905 -.00000085  00000-0 -23569-3 0    43
2 49101  87.8944 240.9185 0001389  84.8999   4.0252 13.12446815    13
ONEWEB-0316             
1 49102C 21075AD  23004.16650879 -.00000274  00000-0 -69475-3 0    48
2 49102  87.9189 225.8101 0001296  98.9603 321.6987 13.18681839    17
ONEWEB-0317             
1 49103C 21075AE  23004.09358053  .00001957  00000-0  54457-2 0    40
2 49103  87.8945 240.9851 0001528  69.3274 359.0767 13.12445588    15
ONEWEB-0318             
1 49104C 21075AF  23004.09428655  .00002046  00000-0  51958-2 0    40
2 49104  87.9192 225.8100 0001347 101.4603 346.5231 13.18681169    13
ONEWEB-0319             
1 49105C 21075AG  23004.34531664 -.00002216  00000-0 -57145-2 0    49
2 49105  87.9107 256.1542 0001063 108.2735 356.3702 13.17648061    18
ONEWEB-0323             
1 49106C 21075AH  23004.38174026 -.00001438  00000-0 -40015-2 0    42
2 49106  87.8935 240.9227 0001265  88.7098 305.6029 13.12441216    13
ONEWEB-0329             
1 49107C 21075AJ  23004.12414766  .00002267  00000-0  58456-2 0    40
2 49107  87.9109 256.1973 0001316  75.6581  45.7360 13.17643001    15
ONEWEB-0330             
1 49108C 21075AK  23004.27444859 -.00002175  00000-0 -56078-2 0    41
2 49108  87.9108 256.1859 0001421  73.5619  33.1102 13.17648093    15
ONEWEB-0292             
1 49186C 21083A   23004.04772405  .00002138  00000-0  58629-2 0    43
2 49186  87.9013 210.6217 0001543  93.9376 330.9173 13.13468889    15
ONEWEB-0303             
1 49187C 21083B   23004.16060600  .00000185  00000-0  46930-3 0    47
2 49187  87.9193 225.7990 0001308  95.4043 327.1965 13.18684081    13
ONEWEB-0306             
1 49188C 21083C   23004.45535137  .00003502  00000-0  88939-2 0    42
2 49188  87.9195 225.7316 0001317 108.1895 312.8320 13.18681219    11
ONEWEB-0307             
1 49189C 21083D   23004.04393933  .00002518  00000-0  69026-2 0    46
2 49189  87.9014 210.6221 0001460  89.2122 337.9031 13.13468327    16
ONEWEB-0320             
1 49190C 21083E   23004.15852266  .00000291  00000-0  74025-3 0    41
2 49190  87.9194 225.8088 0001612  81.1856 341.4969 13.18683016    19
ONEWEB-0321             
1 49191C 21083F   23004.34565230  .00001813  00000-0  40493-2 0    47
2 49191  87.9584 165.1534 0001850  89.2560 345.0571 13.27316057    17
ONEWEB-0322             
1 49192C 21083G   23004.26928655 -.00000230  00000-0 -62973-3 0    45
2 49192  87.9018 210.5635 0001927  65.6967   6.2170 13.13470453    18
ONEWEB-0324             
1 49193C 21083H   23004.30121943 -.00001056  00000-0 -26826-2 0    49
2 49193  87.9198 225.7648 0001153  96.1947 353.4410 13.18689800    15
ONEWEB-0325             
1 49194C 21083J   23004.22414766 -.00001205  00000-0 -30587-2 0    44
2 49194  87.9176 225.6970 0001727  86.8320 336.9599 13.18705198    10
ONEWEB-0326             
1 49195C 21083K   23004.16266619  .00000047  00000-0  11844-3 0    47
2 49195  87.9193 225.7781 0000983 106.9936 315.4044 13.18683698    18
